[{"OBJECT_NAME":"FLYING LAPTOP","OBJECT_ID":"2017-042G","EPOCH":"2026-03-09T23:28:27.762240","MEAN_MOTION":15.00523488,"ECCENTRICITY":0.00192138,"INCLINATION":97.4274,"RA_OF_ASC_NODE":228.6392,"ARG_OF_PERICENTER":94.5564,"MEAN_ANOMALY":265.7856,"EPHEMERIS_TYPE":0,"CLASSIFICATION_TYPE":"U","NORAD_CAT_ID":42831,"ELEMENT_SET_NO":999,"REV_AT_EPOCH":47157,"BSTAR":0.00042943592,"MEAN_MOTION_DOT":5.379e-5,"MEAN_MOTION_DDOT":0},{"OBJECT_NAME":"CZ-4B DEB","OBJECT_ID":"2008-053M","EPOCH":"2026-03-05T07:18:48.921696","MEAN_MOTION":15.08195439,"ECCENTRICITY":0.0017401,"INCLINATION":97.8281,"RA_OF_ASC_NODE":90.6528,"ARG_OF_PERICENTER":258.7901,"MEAN_ANOMALY":101.1371,"EPHEMERIS_TYPE":0,"CLASSIFICATION_TYPE":"U","NORAD_CAT_ID":44593,"ELEMENT_SET_NO":999,"REV_AT_EPOCH":67199,"BSTAR":0.00019653,"MEAN_MOTION_DOT":2.982e-5,"MEAN_MOTION_DDOT":0}]
